{"fetched_at":"2026-07-13T07:47:59.900Z","source":"https://celestrak.org/NORAD/elements/gp.php?GROUP=spire&FORMAT=JSON","constellation":"spire","records":[{"OBJECT_NAME":"LEMUR-2-LEIA-PHILIP","OBJECT_ID":"2025-052AN","EPOCH":"2026-07-12T15:56:21.589728","CLASSIFICATION_TYPE":"U","MEAN_MOTION":14.97389132,"ECCENTRICITY":0.0005092,"INCLINATION":97.6812,"RA_OF_ASC_NODE":85.1833,"ARG_OF_PERICENTER":125.0201,"MEAN_ANOMALY":235.15,"EPHEMERIS_TYPE":0,"NORAD_CAT_ID":63246,"ELEMENT_SET_NO":999,"REV_AT_EPOCH":7248,"BSTAR":0.000056355,"MEAN_MOTION_DOT":0.00000597,"MEAN_MOTION_DDOT":0},{"OBJECT_NAME":"LEMUR-2-LIA-MARTIN","OBJECT_ID":"2025-052AQ","EPOCH":"2026-07-12T15:50:03.588000","CLASSIFICATION_TYPE":"U","MEAN_MOTION":14.98017579,"ECCENTRICITY":0.0005403,"INCLINATION":97.6876,"RA_OF_ASC_NODE":85.6933,"ARG_OF_PERICENTER":95.9905,"MEAN_ANOMALY":264.1933,"EPHEMERIS_TYPE":0,"NORAD_CAT_ID":63248,"ELEMENT_SET_NO":999,"REV_AT_EPOCH":7249,"BSTAR":0.00024366,"MEAN_MOTION_DOT":0.00002821,"MEAN_MOTION_DDOT":0},{"OBJECT_NAME":"LEMUR-2-DELOITTE-1","OBJECT_ID":"2025-052BB","EPOCH":"2026-07-12T16:57:30.589920","CLASSIFICATION_TYPE":"U","MEAN_MOTION":14.97770317,"ECCENTRICITY":0.0002451,"INCLINATION":97.6883,"RA_OF_ASC_NODE":86.0697,"ARG_OF_PERICENTER":67.7345,"MEAN_ANOMALY":292.4137,"EPHEMERIS_TYPE":0,"NORAD_CAT_ID":63259,"ELEMENT_SET_NO":999,"REV_AT_EPOCH":7251,"BSTAR":0.00019038,"MEAN_MOTION_DOT":0.00002176,"MEAN_MOTION_DDOT":0},{"OBJECT_NAME":"LEMUR-2-EMERSONROSE","OBJECT_ID":"2025-052BD","EPOCH":"2026-07-12T15:45:25.680672","CLASSIFICATION_TYPE":"U","MEAN_MOTION":14.99276404,"ECCENTRICITY":0.0002799,"INCLINATION":97.6886,"RA_OF_ASC_NODE":86.6281,"ARG_OF_PERICENTER":64.9335,"MEAN_ANOMALY":295.2179,"EPHEMERIS_TYPE":0,"NORAD_CAT_ID":63261,"ELEMENT_SET_NO":999,"REV_AT_EPOCH":7255,"BSTAR":0.00024448,"MEAN_MOTION_DOT":0.00002925,"MEAN_MOTION_DDOT":0},{"OBJECT_NAME":"LEMUR-2-MARACHE-FRAN","OBJECT_ID":"2025-052BE","EPOCH":"2026-07-12T16:20:37.711392","CLASSIFICATION_TYPE":"U","MEAN_MOTION":15.00306023,"ECCENTRICITY":0.0004895,"INCLINATION":97.6849,"RA_OF_ASC_NODE":87.0169,"ARG_OF_PERICENTER":264.0208,"MEAN_ANOMALY":96.0458,"EPHEMERIS_TYPE":0,"NORAD_CAT_ID":63262,"ELEMENT_SET_NO":999,"REV_AT_EPOCH":7258,"BSTAR":0.00015634,"MEAN_MOTION_DOT":0.000019,"MEAN_MOTION_DDOT":0},{"OBJECT_NAME":"LEMUR-2-THEFALCONER","OBJECT_ID":"2025-052BG","EPOCH":"2026-07-12T16:04:38.095104","CLASSIFICATION_TYPE":"U","MEAN_MOTION":14.97557464,"ECCENTRICITY":0.0000412,"INCLINATION":97.6844,"RA_OF_ASC_NODE":85.6273,"ARG_OF_PERICENTER":354.5924,"MEAN_ANOMALY":5.5293,"EPHEMERIS_TYPE":0,"NORAD_CAT_ID":63264,"ELEMENT_SET_NO":999,"REV_AT_EPOCH":7250,"BSTAR":0.00011487,"MEAN_MOTION_DOT":0.00001283,"MEAN_MOTION_DDOT":0},{"OBJECT_NAME":"LEMUR-2-UNTITLED-SC","OBJECT_ID":"2025-061A","EPOCH":"2026-07-12T19:20:41.863776","CLASSIFICATION_TYPE":"U","MEAN_MOTION":15.13637834,"ECCENTRICITY":0.0018988,"INCLINATION":97.5648,"RA_OF_ASC_NODE":168.9854,"ARG_OF_PERICENTER":171.1017,"MEAN_ANOMALY":189.0554,"EPHEMERIS_TYPE":0,"NORAD_CAT_ID":63351,"ELEMENT_SET_NO":999,"REV_AT_EPOCH":7146,"BSTAR":0.00013437,"MEAN_MOTION_DOT":0.00002357,"MEAN_MOTION_DDOT":0},{"OBJECT_NAME":"LEMUR-2-ESPERANZA","OBJECT_ID":"2025-061B","EPOCH":"2026-07-12T10:49:28.570368","CLASSIFICATION_TYPE":"U","MEAN_MOTION":15.1374234,"ECCENTRICITY":0.00185437,"INCLINATION":97.5656,"RA_OF_ASC_NODE":168.7323,"ARG_OF_PERICENTER":171.5151,"MEAN_ANOMALY":188.6398,"EPHEMERIS_TYPE":0,"NORAD_CAT_ID":63352,"ELEMENT_SET_NO":999,"REV_AT_EPOCH":7141,"BSTAR":0.000092369652,"MEAN_MOTION_DOT":0.00001604,"MEAN_MOTION_DDOT":0},{"OBJECT_NAME":"LEMUR-2-KREMPEL-BRO2","OBJECT_ID":"2025-061C","EPOCH":"2026-07-12T20:48:52.809696","CLASSIFICATION_TYPE":"U","MEAN_MOTION":15.1417042,"ECCENTRICITY":0.0019727,"INCLINATION":97.5702,"RA_OF_ASC_NODE":169.712,"ARG_OF_PERICENTER":163.0753,"MEAN_ANOMALY":197.1141,"EPHEMERIS_TYPE":0,"NORAD_CAT_ID":63353,"ELEMENT_SET_NO":999,"REV_AT_EPOCH":7149,"BSTAR":0.00012612,"MEAN_MOTION_DOT":0.00002243,"MEAN_MOTION_DDOT":0},{"OBJECT_NAME":"LEMUR-2-THERMORAPTOR","OBJECT_ID":"2025-061D","EPOCH":"2026-07-12T09:14:58.036416","CLASSIFICATION_TYPE":"U","MEAN_MOTION":15.14250775,"ECCENTRICITY":0.00194676,"INCLINATION":97.5707,"RA_OF_ASC_NODE":169.3131,"ARG_OF_PERICENTER":163.5067,"MEAN_ANOMALY":196.6802,"EPHEMERIS_TYPE":0,"NORAD_CAT_ID":63354,"ELEMENT_SET_NO":999,"REV_AT_EPOCH":7142,"BSTAR":0.00010034005,"MEAN_MOTION_DOT":0.00001775,"MEAN_MOTION_DDOT":0},{"OBJECT_NAME":"LEMUR-2-NEUROSPICY","OBJECT_ID":"2025-061E","EPOCH":"2026-07-12T19:37:25.873248","CLASSIFICATION_TYPE":"U","MEAN_MOTION":15.14371215,"ECCENTRICITY":0.0017235,"INCLINATION":97.5634,"RA_OF_ASC_NODE":169.3497,"ARG_OF_PERICENTER":164.8604,"MEAN_ANOMALY":195.3147,"EPHEMERIS_TYPE":0,"NORAD_CAT_ID":63355,"ELEMENT_SET_NO":999,"REV_AT_EPOCH":7149,"BSTAR":0.00013655,"MEAN_MOTION_DOT":0.00002446,"MEAN_MOTION_DDOT":0},{"OBJECT_NAME":"LEMUR-2-TILLINFINITY","OBJECT_ID":"2025-061F","EPOCH":"2026-07-12T09:08:11.883840","CLASSIFICATION_TYPE":"U","MEAN_MOTION":15.14952784,"ECCENTRICITY":0.00187877,"INCLINATION":97.562,"RA_OF_ASC_NODE":169.2233,"ARG_OF_PERICENTER":155.1465,"MEAN_ANOMALY":205.0676,"EPHEMERIS_TYPE":0,"NORAD_CAT_ID":63356,"ELEMENT_SET_NO":999,"REV_AT_EPOCH":7145,"BSTAR":0.0001013545,"MEAN_MOTION_DOT":0.00001829,"MEAN_MOTION_DDOT":0},{"OBJECT_NAME":"LEMUR-2-KREMPEL-BRO1","OBJECT_ID":"2025-061G","EPOCH":"2026-07-12T21:15:38.090592","CLASSIFICATION_TYPE":"U","MEAN_MOTION":15.14762625,"ECCENTRICITY":0.001942,"INCLINATION":97.5621,"RA_OF_ASC_NODE":169.6347,"ARG_OF_PERICENTER":154.8111,"MEAN_ANOMALY":205.4072,"EPHEMERIS_TYPE":0,"NORAD_CAT_ID":63357,"ELEMENT_SET_NO":999,"REV_AT_EPOCH":7152,"BSTAR":0.00013262,"MEAN_MOTION_DOT":0.00002402,"MEAN_MOTION_DDOT":0},{"OBJECT_NAME":"LEMUR-2-LANGER2SPACE","OBJECT_ID":"2025-061H","EPOCH":"2026-07-12T12:30:21.610080","CLASSIFICATION_TYPE":"U","MEAN_MOTION":15.14454541,"ECCENTRICITY":0.0017136,"INCLINATION":97.5625,"RA_OF_ASC_NODE":169.0758,"ARG_OF_PERICENTER":164.2646,"MEAN_ANOMALY":195.9121,"EPHEMERIS_TYPE":0,"NORAD_CAT_ID":63358,"ELEMENT_SET_NO":999,"REV_AT_EPOCH":7145,"BSTAR":0.0001011,"MEAN_MOTION_DOT":0.00001797,"MEAN_MOTION_DDOT":0},{"OBJECT_NAME":"LEMUR-2-BALTO","OBJECT_ID":"2025-052BH","EPOCH":"2026-07-12T15:58:13.552896","CLASSIFICATION_TYPE":"U","MEAN_MOTION":15.00350179,"ECCENTRICITY":0.0005235,"INCLINATION":97.6934,"RA_OF_ASC_NODE":86.9871,"ARG_OF_PERICENTER":338.251,"MEAN_ANOMALY":21.8491,"EPHEMERIS_TYPE":0,"NORAD_CAT_ID":63395,"ELEMENT_SET_NO":999,"REV_AT_EPOCH":7258,"BSTAR":0.00023213,"MEAN_MOTION_DOT":0.00002854,"MEAN_MOTION_DDOT":0},{"OBJECT_NAME":"LEMUR-2-KRISH","OBJECT_ID":"2025-135AK","EPOCH":"2026-07-11T19:36:33.699744","CLASSIFICATION_TYPE":"U","MEAN_MOTION":14.96434298,"ECCENTRICITY":0.00016273,"INCLINATION":97.777,"RA_OF_ASC_NODE":307.5283,"ARG_OF_PERICENTER":96.8966,"MEAN_ANOMALY":263.2441,"EPHEMERIS_TYPE":0,"NORAD_CAT_ID":64561,"ELEMENT_SET_NO":999,"REV_AT_EPOCH":5760,"BSTAR":0.00023929928,"MEAN_MOTION_DOT":0.00002656,"MEAN_MOTION_DDOT":0}]}
